[{"OBJECT_NAME":"LYNK TOWER 6","OBJECT_ID":"2024-043AB","EPOCH":"2026-03-09T21:28:38.303328","MEAN_MOTION":15.29548678,"ECCENTRICITY":0.00097492,"INCLINATION":97.5426,"RA_OF_ASC_NODE":204.1954,"ARG_OF_PERICENTER":232.0253,"MEAN_ANOMALY":128.0107,"EPHEMERIS_TYPE":0,"CLASSIFICATION_TYPE":"U","NORAD_CAT_ID":59123,"ELEMENT_SET_NO":999,"REV_AT_EPOCH":11184,"BSTAR":0.00040142146,"MEAN_MOTION_DOT":0.0001144,"MEAN_MOTION_DDOT":0},{"OBJECT_NAME":"STARLINK-32743","OBJECT_ID":"2024-254U","EPOCH":"2026-03-09T04:47:44.708928","MEAN_MOTION":15.27585096,"ECCENTRICITY":0.00029067,"INCLINATION":42.9994,"RA_OF_ASC_NODE":18.6534,"ARG_OF_PERICENTER":253.1247,"MEAN_ANOMALY":106.9286,"EPHEMERIS_TYPE":0,"CLASSIFICATION_TYPE":"U","NORAD_CAT_ID":62480,"ELEMENT_SET_NO":999,"REV_AT_EPOCH":6758,"BSTAR":0.00093197303,"MEAN_MOTION_DOT":0.00025478,"MEAN_MOTION_DDOT":0}]
